{"type": "FeatureCollection", "features": [ {"type": "Feature", "properties": {"norad_id": 34845, "name": "COSMOS 2251 DEB", "group": "cosmos-2251-debris", "lat": 61.69122491478088, "lon": 152.03797882355434, "alt_km": 746.4535725563446, "timestamp": "2025-12-27T23:26:37.759286+00:00", "meta": {"OBJECT_NAME": "COSMOS 2251 DEB", "OBJECT_ID": "1993-036ABP", "EPOCH": "2025-12-27T01:33:01.984320", "MEAN_MOTION": 14.45889384, "ECCENTRICITY": 0.00227892, "INCLINATION": 74.0251, "RA_OF_ASC_NODE": 121.6119, "ARG_OF_PERICENTER": 280.5083, "MEAN_ANOMALY": 79.3507, "EPHEMERIS_TYPE": 0, "CLASSIFICATION_TYPE": "U", "NORAD_CAT_ID": 34845, "ELEMENT_SET_NO": 999, "REV_AT_EPOCH": 87673, "BSTAR": 0.00036277957, "MEAN_MOTION_DOT": 1.266e-05, "MEAN_MOTION_DDOT": 0}, "tle": {"line1": "1 34845U 93036ABP 25361.06460630  .00001266  00000+0  36278-3 0  9990", "line2": "2 34845  74.0251 121.6119 0022789 280.5083  79.3507 14.45889384876736"}}, "geometry": {"type": "Point", "coordinates": [152.03797882355434, 61.69122491478088]}}, {"type": "Feature", "properties": {"norad_id": 34846, "name": "COSMOS 2251 DEB", "group": "cosmos-2251-debris", "lat": 71.87594064874868, "lon": -65.68554554018547, "alt_km": 742.2242319802772, "timestamp": "2025-12-27T23:26:37.759297+00:00", "meta": {"OBJECT_NAME": "COSMOS 2251 DEB", "OBJECT_ID": "1993-036ABQ", "EPOCH": "2025-12-27T01:30:10.374912", "MEAN_MOTION": 14.47292573, "ECCENTRICITY": 0.00262315, "INCLINATION": 74.0297, "RA_OF_ASC_NODE": 234.9893, "ARG_OF_PERICENTER": 299.6193, "MEAN_ANOMALY": 60.2353, "EPHEMERIS_TYPE": 0, "CLASSIFICATION_TYPE": "U", "NORAD_CAT_ID": 34846, "ELEMENT_SET_NO": 999, "REV_AT_EPOCH": 87611, "BSTAR": 0.00081702996, "MEAN_MOTION_DOT": 2.976e-05, "MEAN_MOTION_DDOT": 0}, "tle": {"line1": "1 34846U 93036ABQ 25361.06262008  .00002976  00000+0  81703-3 0  9992", "line2": "2 34846  74.0297 234.9893 0026231 299.6193  60.2353 14.47292573876113"}}, "geometry": {"type": "Point", "coordinates": [-65.68554554018547, 71.87594064874868]}}, {"type": "Feature", "properties": {"norad_id": 34852, "name": "COSMOS 2251 DEB", "group": "cosmos-2251-debris", "lat": -51.440849895574615, "lon": -146.0984641835939, "alt_km": 764.530784244198, "timestamp": "2025-12-27T23:26:37.759307+00:00", "meta": {"OBJECT_NAME": "COSMOS 2251 DEB", "OBJECT_ID": "1993-036ABW", "EPOCH": "2025-12-24T08:48:51.292512", "MEAN_MOTION": 14.37013481, "ECCENTRICITY": 0.00167051, "INCLINATION": 74.0323, "RA_OF_ASC_NODE": 241.5883, "ARG_OF_PERICENTER": 342.3569, "MEAN_ANOMALY": 17.7002, "EPHEMERIS_TYPE": 0, "CLASSIFICATION_TYPE": "U", "NORAD_CAT_ID": 34852, "ELEMENT_SET_NO": 999, "REV_AT_EPOCH": 87701, "BSTAR": 0.00010991472, "MEAN_MOTION_DOT": 3e-06, "MEAN_MOTION_DDOT": 0}, "tle": {"line1": "1 34852U 93036ABW 25358.36726033  .00000300  00000+0  10991-3 0  9991", "line2": "2 34852  74.0323 241.5883 0016705 342.3569  17.7002 14.37013481877017"}}, "geometry": {"type": "Point", "coordinates": [-146.0984641835939, -51.440849895574615]}}, {"type": "Feature", "properties": {"norad_id": 34854, "name": "COSMOS 2251 DEB", "group": "cosmos-2251-debris", "lat": -42.13156252489295, "lon": -36.27139221844964, "alt_km": 600.6841022993158, "timestamp": "2025-12-27T23:26:37.759318+00:00", "meta": {"OBJECT_NAME": "COSMOS 2251 DEB", "OBJECT_ID": "1993-036ABY", "EPOCH": "2025-12-24T03:22:47.701632", "MEAN_MOTION": 14.76734417, "ECCENTRICITY": 0.00659344, "INCLINATION": 74.0296, "RA_OF_ASC_NODE": 136.2324, "ARG_OF_PERICENTER": 245.6439, "MEAN_ANOMALY": 113.7843, "EPHEMERIS_TYPE": 0, "CLASSIFICATION_TYPE": "U", "NORAD_CAT_ID": 34854, "ELEMENT_SET_NO": 999, "REV_AT_EPOCH": 72050, "BSTAR": 0.00083194152, "MEAN_MOTION_DOT": 6.009e-05, "MEAN_MOTION_DDOT": 0}, "tle": {"line1": "1 34854U 93036ABY 25358.14082988  .00006009  00000+0  83194-3 0  9990", "line2": "2 34854  74.0296 136.2324 0065934 245.6439 113.7843 14.76734417720500"}}, "geometry": {"type": "Point", "coordinates": [-36.27139221844964, -42.13156252489295]}}, {"type": "Feature", "properties": {"norad_id": 34856, "name": "COSMOS 2251 DEB", "group": "cosmos-2251-debris", "lat": 49.30826536630121, "lon": -146.00208116779712, "alt_km": 530.5520837381509, "timestamp": "2025-12-27T23:26:37.759328+00:00", "meta": {"OBJECT_NAME": "COSMOS 2251 DEB", "OBJECT_ID": "1993-036ACA", "EPOCH": "2025-12-27T03:53:45.464928", "MEAN_MOTION": 15.06784803, "ECCENTRICITY": 0.00308071, "INCLINATION": 73.9962, "RA_OF_ASC_NODE": 55.1727, "ARG_OF_PERICENTER": 190.2845, "MEAN_ANOMALY": 201.5352, "EPHEMERIS_TYPE": 0, "CLASSIFICATION_TYPE": "U", "NORAD_CAT_ID": 34856, "ELEMENT_SET_NO": 999, "REV_AT_EPOCH": 89329, "BSTAR": 0.0019202331, "MEAN_MOTION_DOT": 0.00028979, "MEAN_MOTION_DDOT": 0}, "tle": {"line1": "1 34856U 93036ACA 25361.16233177  .00028979  00000+0  19202-2 0  9994", "line2": "2 34856  73.9962  55.1727 0030807 190.2845 201.5352 15.06784803893299"}}, "geometry": {"type": "Point", "coordinates": [-146.00208116779712, 49.30826536630121]}}, {"type": "Feature", "properties": {"norad_id": 34857, "name": "COSMOS 2251 DEB", "group": "cosmos-2251-debris", "lat": 52.610204156290386, "lon": 99.79124458826999, "alt_km": 727.9270204983804, "timestamp": "2025-12-27T23:26:37.759338+00:00", "meta": {"OBJECT_NAME": "COSMOS 2251 DEB", "OBJECT_ID": "1993-036ACB", "EPOCH": "2025-12-27T05:13:34.023360", "MEAN_MOTION": 14.59036151, "ECCENTRICITY": 0.0065094, "INCLINATION": 74.0154, "RA_OF_ASC_NODE": 79.2112, "ARG_OF_PERICENTER": 200.9762, "MEAN_ANOMALY": 189.8523, "EPHEMERIS_TYPE": 0, "CLASSIFICATION_TYPE": "U", "NORAD_CAT_ID": 34857, "ELEMENT_SET_NO": 999, "REV_AT_EPOCH": 88112, "BSTAR": 0.0011356, "MEAN_MOTION_DOT": 5.469e-05, "MEAN_MOTION_DDOT": 0}, "tle": {"line1": "1 34857U 93036ACB 25361.21775490  .00005469  00000+0  11356-2 0  9991", "line2": "2 34857  74.0154  79.2112 0065094 200.9762 189.8523 14.59036151881123"}}, "geometry": {"type": "Point", "coordinates": [99.79124458826999, 52.610204156290386]}}, {"type": "Feature", "properties": {"norad_id": 34859, "name": "COSMOS 2251 DEB", "group": "cosmos-2251-debris", "lat": -63.36542183504729, "lon": 162.72609662590907, "alt_km": 522.4281439789147, "timestamp": "2025-12-27T23:26:37.759349+00:00", "meta": {"OBJECT_NAME": "COSMOS 2251 DEB", "OBJECT_ID": "1993-036ACD", "EPOCH": "2025-12-27T05:13:36.254208", "MEAN_MOTION": 15.16899286, "ECCENTRICITY": 0.0001119, "INCLINATION": 74.0302, "RA_OF_ASC_NODE": 309.4885, "ARG_OF_PERICENTER": 42.3506, "MEAN_ANOMALY": 22.6359, "EPHEMERIS_TYPE": 0, "CLASSIFICATION_TYPE": "U", "NORAD_CAT_ID": 34859, "ELEMENT_SET_NO": 999, "REV_AT_EPOCH": 88578, "BSTAR": 0.0036094, "MEAN_MOTION_DOT": 0.0007182, "MEAN_MOTION_DDOT": 0}, "tle": {"line1": "1 34859U 93036ACD 25361.21778072  .00071820  00000+0  36094-2 0  9992", "line2": "2 34859  74.0302 309.4885 0001119  42.3506  22.6359 15.16899286885784"}}, "geometry": {"type": "Point", "coordinates": [162.72609662590907, -63.36542183504729]}}, {"type": "Feature", "properties": {"norad_id": 34861, "name": "COSMOS 2251 DEB", "group": "cosmos-2251-debris", "lat": 9.04016016366058, "lon": -162.91060280269448, "alt_km": 562.929157047759, "timestamp": "2025-12-27T23:26:37.759359+00:00", "meta": {"OBJECT_NAME": "COSMOS 2251 DEB", "OBJECT_ID": "1993-036ACF", "EPOCH": "2025-12-27T12:03:40.984416", "MEAN_MOTION": 15.03546425, "ECCENTRICITY": 0.0008495, "INCLINATION": 74.0193, "RA_OF_ASC_NODE": 20.6725, "ARG_OF_PERICENTER": 8.3135, "MEAN_ANOMALY": 116.0941, "EPHEMERIS_TYPE": 0, "CLASSIFICATION_TYPE": "U", "NORAD_CAT_ID": 34861, "ELEMENT_SET_NO": 999, "REV_AT_EPOCH": 88314, "BSTAR": 0.0031329, "MEAN_MOTION_DOT": 0.00043038, "MEAN_MOTION_DDOT": 0}, "tle": {"line1": "1 34861U 93036ACF 25361.50255769  .00043038  00000+0  31329-2 0  9996", "line2": "2 34861  74.0193  20.6725 0008495   8.3135 116.0941 15.03546425883147"}}, "geometry": {"type": "Point", "coordinates": [-162.91060280269448, 9.04016016366058]}}, {"type": "Feature", "properties": {"norad_id": 34874, "name": "COSMOS 2251 DEB", "group": "cosmos-2251-debris", "lat": 62.53220557163854, "lon": 79.18354185522682, "alt_km": 727.9319367410035, "timestamp": "2025-12-27T23:26:37.759369+00:00", "meta": {"OBJECT_NAME": "COSMOS 2251 DEB", "OBJECT_ID": "1993-036ACM", "EPOCH": "2025-12-27T09:50:59.243424", "MEAN_MOTION": 14.36378334, "ECCENTRICITY": 0.0050505, "INCLINATION": 74.0391, "RA_OF_ASC_NODE": 46.8204, "ARG_OF_PERICENTER": 67.339, "MEAN_ANOMALY": 312.2912, "EPHEMERIS_TYPE": 0, "CLASSIFICATION_TYPE": "U", "NORAD_CAT_ID": 34874, "ELEMENT_SET_NO": 999, "REV_AT_EPOCH": 87255, "BSTAR": 0.00086172, "MEAN_MOTION_DOT": 2.535e-05, "MEAN_MOTION_DDOT": 0}, "tle": {"line1": "1 34874U 93036ACM 25361.41040791  .00002535  00000+0  86172-3 0  9991", "line2": "2 34874  74.0391  46.8204 0050505  67.3390 312.2912 14.36378334872558"}}, "geometry": {"type": "Point", "coordinates": [79.18354185522682, 62.53220557163854]}}, {"type": "Feature", "properties": {"norad_id": 34875, "name": "COSMOS 2251 DEB", "group": "cosmos-2251-debris", "lat": 74.00971759393599, "lon": -137.09121371036576, "alt_km": 732.4893498081201, "timestamp": "2025-12-27T23:26:37.759379+00:00", "meta": {"OBJECT_NAME": "COSMOS 2251 DEB", "OBJECT_ID": "1993-036ACN", "EPOCH": "2025-12-26T09:03:25.523136", "MEAN_MOTION": 14.48972349, "ECCENTRICITY": 0.0016255, "INCLINATION": 74.0439, "RA_OF_ASC_NODE": 132.6635, "ARG_OF_PERICENTER": 255.3321, "MEAN_ANOMALY": 135.8021, "EPHEMERIS_TYPE": 0, "CLASSIFICATION_TYPE": "U", "NORAD_CAT_ID": 34875, "ELEMENT_SET_NO": 999, "REV_AT_EPOCH": 87953, "BSTAR": 0.00051077, "MEAN_MOTION_DOT": 1.912e-05, "MEAN_MOTION_DDOT": 0}, "tle": {"line1": "1 34875U 93036ACN 25360.37737874  .00001912  00000+0  51077-3 0  9995", "line2": "2 34875  74.0439 132.6635 0016255 255.3321 135.8021 14.48972349879535"}}, "geometry": {"type": "Point", "coordinates": [-137.09121371036576, 74.00971759393599]}}]}